STARLINK-2408           
1 47823U 21018AN  26068.73302640 -.00001890  00000+0 -10803-3 0  9997
2 47823  53.0554 251.4081 0001435 109.3235 250.7910 15.06395389276609
LEMUR-2-LLOYD           
1 60577U 24149DP  26068.46001441  .00012007  00000+0  80143-3 0  9995
2 60577  97.6780 149.6779 0005186 125.6096 234.5616 15.07168338 85367
